[{"OBJECT_NAME":"ORBCOMM FM105","OBJECT_ID":"2015-081C","EPOCH":"2026-03-03T05:51:52.222752","MEAN_MOTION":14.45487326,"ECCENTRICITY":0.0001306,"INCLINATION":47.0008,"RA_OF_ASC_NODE":82.5406,"ARG_OF_PERICENTER":7.6324,"MEAN_ANOMALY":352.4576,"EPHEMERIS_TYPE":0,"CLASSIFICATION_TYPE":"U","NORAD_CAT_ID":41181,"ELEMENT_SET_NO":999,"REV_AT_EPOCH":53822,"BSTAR":0.00013974,"MEAN_MOTION_DOT":3.39e-6,"MEAN_MOTION_DDOT":0},{"OBJECT_NAME":"ORBCOMM FM110","OBJECT_ID":"2015-081D","EPOCH":"2026-03-03T10:11:42.473760","MEAN_MOTION":14.58719747,"ECCENTRICITY":0.0003554,"INCLINATION":47.0014,"RA_OF_ASC_NODE":141.4604,"ARG_OF_PERICENTER":294.4608,"MEAN_ANOMALY":65.5907,"EPHEMERIS_TYPE":0,"CLASSIFICATION_TYPE":"U","NORAD_CAT_ID":41182,"ELEMENT_SET_NO":999,"REV_AT_EPOCH":54218,"BSTAR":0.00029696,"MEAN_MOTION_DOT":1.228e-5,"MEAN_MOTION_DDOT":0},{"OBJECT_NAME":"ORBCOMM FM118","OBJECT_ID":"2015-081E","EPOCH":"2026-03-03T06:05:36.349152","MEAN_MOTION":14.58715088,"ECCENTRICITY":0.0003901,"INCLINATION":47.0034,"RA_OF_ASC_NODE":142.5817,"ARG_OF_PERICENTER":263.01,"MEAN_ANOMALY":97.0342,"EPHEMERIS_TYPE":0,"CLASSIFICATION_TYPE":"U","NORAD_CAT_ID":41183,"ELEMENT_SET_NO":999,"REV_AT_EPOCH":54226,"BSTAR":0.00028623,"MEAN_MOTION_DOT":1.178e-5,"MEAN_MOTION_DDOT":0},{"OBJECT_NAME":"ORBCOMM FM112","OBJECT_ID":"2015-081F","EPOCH":"2026-03-03T07:48:30.284928","MEAN_MOTION":14.5871657,"ECCENTRICITY":0.0001018,"INCLINATION":46.9996,"RA_OF_ASC_NODE":50.7461,"ARG_OF_PERICENTER":48.6959,"MEAN_ANOMALY":311.4014,"EPHEMERIS_TYPE":0,"CLASSIFICATION_TYPE":"U","NORAD_CAT_ID":41184,"ELEMENT_SET_NO":999,"REV_AT_EPOCH":54349,"BSTAR":0.00023851,"MEAN_MOTION_DOT":9.53e-6,"MEAN_MOTION_DDOT":0},{"OBJECT_NAME":"ORBCOMM FM113","OBJECT_ID":"2015-081G","EPOCH":"2026-03-03T08:54:19.488096","MEAN_MOTION":14.58717779,"ECCENTRICITY":5.93e-5,"INCLINATION":47.0012,"RA_OF_ASC_NODE":50.8971,"ARG_OF_PERICENTER":57.1173,"MEAN_ANOMALY":302.977,"EPHEMERIS_TYPE":0,"CLASSIFICATION_TYPE":"U","NORAD_CAT_ID":41185,"ELEMENT_SET_NO":999,"REV_AT_EPOCH":54348,"BSTAR":0.00022989,"MEAN_MOTION_DOT":9.13e-6,"MEAN_MOTION_DDOT":0},{"OBJECT_NAME":"ORBCOMM FM115","OBJECT_ID":"2015-081H","EPOCH":"2026-03-03T11:09:37.327104","MEAN_MOTION":14.63105304,"ECCENTRICITY":0.0001143,"INCLINATION":46.9973,"RA_OF_ASC_NODE":245.8766,"ARG_OF_PERICENTER":205.3366,"MEAN_ANOMALY":154.7466,"EPHEMERIS_TYPE":0,"CLASSIFICATION_TYPE":"U","NORAD_CAT_ID":41186,"ELEMENT_SET_NO":999,"REV_AT_EPOCH":54573,"BSTAR":0.00023407,"MEAN_MOTION_DOT":1.038e-5,"MEAN_MOTION_DDOT":0},{"OBJECT_NAME":"ORBCOMM FM108","OBJECT_ID":"2015-081J","EPOCH":"2026-03-03T03:04:39.690624","MEAN_MOTION":14.58728544,"ECCENTRICITY":0.0002219,"INCLINATION":47.006,"RA_OF_ASC_NODE":323.5848,"ARG_OF_PERICENTER":56.0117,"MEAN_ANOMALY":304.0979,"EPHEMERIS_TYPE":0,"CLASSIFICATION_TYPE":"U","NORAD_CAT_ID":41187,"ELEMENT_SET_NO":999,"REV_AT_EPOCH":54459,"BSTAR":0.00028386,"MEAN_MOTION_DOT":1.167e-5,"MEAN_MOTION_DDOT":0},{"OBJECT_NAME":"ORBCOMM FM117","OBJECT_ID":"2015-081K","EPOCH":"2026-03-03T02:15:00.449280","MEAN_MOTION":14.58720328,"ECCENTRICITY":0.0002543,"INCLINATION":47.0023,"RA_OF_ASC_NODE":322.4166,"ARG_OF_PERICENTER":66.8447,"MEAN_ANOMALY":293.2706,"EPHEMERIS_TYPE":0,"CLASSIFICATION_TYPE":"U","NORAD_CAT_ID":41188,"ELEMENT_SET_NO":999,"REV_AT_EPOCH":54463,"BSTAR":0.00027116,"MEAN_MOTION_DOT":1.107e-5,"MEAN_MOTION_DDOT":0},{"OBJECT_NAME":"ORBCOMM FM116","OBJECT_ID":"2015-081L","EPOCH":"2026-03-03T03:25:57.068832","MEAN_MOTION":14.58710608,"ECCENTRICITY":0.0002691,"INCLINATION":47.0028,"RA_OF_ASC_NODE":51.9647,"ARG_OF_PERICENTER":289.7792,"MEAN_ANOMALY":70.2803,"EPHEMERIS_TYPE":0,"CLASSIFICATION_TYPE":"U","NORAD_CAT_ID":41189,"ELEMENT_SET_NO":999,"REV_AT_EPOCH":54345,"BSTAR":0.00023956,"MEAN_MOTION_DOT":9.58e-6,"MEAN_MOTION_DDOT":0}]
